OBJECT_NAME,OBJECT_ID,EPOCH,MEAN_MOTION,ECCENTRICITY,INCLINATION,RA_OF_ASC_NODE,ARG_OF_PERICENTER,MEAN_ANOMALY,EPHEMERIS_TYPE,CLASSIFICATION_TYPE,NORAD_CAT_ID,ELEMENT_SET_NO,REV_AT_EPOCH,BSTAR,MEAN_MOTION_DOT,MEAN_MOTION_DDOT
ONEWEB-0309,2021-075W,2026-06-15T19:09:16.962336,13.17648906,.00019451,87.9133,6.1393,102.5117,257.6232,0,U,49095,999,23339,.12011392E-4,.18E-6,0
ONEWEB-0310,2021-075X,2026-06-15T22:32:59.001792,13.12444981,.00018022,87.8939,350.9286,91.2140,268.9195,0,U,49096,999,23502,-.21819374E-3,-.66E-6,0
ONEWEB-0311,2021-075Y,2026-06-15T19:19:00.816384,13.17649973,.00022563,87.9134,6.1375,82.1317,278.0070,0,U,49097,999,23344,-.86995635E-4,-.21E-6,0
ONEWEB-0312,2021-075Z,2026-06-15T23:19:35.608224,13.17652709,.00021799,87.9132,6.1152,91.6621,268.4760,0,U,49098,999,23344,.71950868E-4,.41E-6,0
ONEWEB-0313,2021-075AA,2026-06-15T19:47:57.865056,13.17648120,.00019814,87.9129,6.1503,86.4601,273.6757,0,U,49099,999,23341,-.10799312E-3,-.29E-6,0
ONEWEB-0314,2021-075AB,2026-06-15T18:59:34.738656,13.17649333,.00022211,87.9142,6.1291,91.4458,268.6928,0,U,49100,999,23338,.14437369E-3,.69E-6,0
ONEWEB-0315,2021-075AC,2026-06-15T21:53:57.335424,13.12442465,.00020759,87.8947,350.8977,81.9599,278.1765,0,U,49101,999,23500,-.77217023E-3,-.265E-5,0
ONEWEB-0316,2021-075AD,2026-06-15T20:51:14.362272,13.18686720,.00019164,87.9163,335.7183,91.9143,268.2208,0,U,49102,999,23703,-.58273387E-4,-.1E-6,0
ONEWEB-0317,2021-075AE,2026-06-15T21:58:50.125152,13.12442555,.00014981,87.8948,350.9207,113.9078,246.2208,0,U,49103,999,23502,-.96925547E-3,-.336E-5,0
ONEWEB-0318,2021-075AF,2026-06-15T22:35:38.996448,13.18685883,.00020192,87.9170,335.7053,86.6782,273.4581,0,U,49104,999,23700,-.849528E-5,.1E-6,0
ONEWEB-0319,2021-075AG,2026-06-15T13:53:23.510976,13.17649343,.00022401,87.9132,6.1880,77.1214,283.0168,0,U,49105,999,23339,.61933671E-4,.37E-6,0
ONEWEB-0323,2021-075AH,2026-06-15T23:21:47.389824,13.12442596,.00023047,87.8947,350.8907,82.5450,277.5940,0,U,49106,999,23439,.77674995E-3,.292E-5,0
ONEWEB-0329,2021-075AJ,2026-06-15T23:12:17.029728,13.17648803,.00020244,87.9133,6.1116,88.7480,271.3883,0,U,49107,999,23342,.84322082E-4,.46E-6,0
ONEWEB-0330,2021-075AK,2026-06-15T20:07:49.415232,13.17648842,.00020206,87.9136,6.1574,93.2760,266.8603,0,U,49108,999,23344,-.15107287E-4,.7E-7,0
ONEWEB-0292,2021-083A,2026-06-15T20:53:35.610720,13.13471268,.00019311,87.8947,320.5005,91.9789,268.1561,0,U,49186,999,23075,.72388176E-3,.277E-5,0
ONEWEB-0303,2021-083B,2026-06-15T22:30:47.431872,13.18687056,.00019703,87.9164,335.7048,89.1807,270.9551,0,U,49187,999,22981,.24807E-6,.13E-6,0
ONEWEB-0306,2021-083C,2026-06-15T22:16:12.876384,13.18687714,.00017285,87.9170,335.6946,99.0340,261.0988,0,U,49188,999,22985,.81340528E-4,.45E-6,0
ONEWEB-0307,2021-083D,2026-06-15T22:34:44.779584,13.13470539,.00019607,87.8952,320.4835,94.7893,265.3460,0,U,49189,999,23076,.29114233E-3,.119E-5,0
ONEWEB-0320,2021-083E,2026-06-15T20:56:05.087040,13.18685693,.00018256,87.9160,335.7239,94.2206,265.9135,0,U,49190,999,22980,.43145934E-4,.3E-6,0
ONEWEB-0321,2021-083F,2026-06-15T20:05:53.574432,13.20771671,.0001784,87.9193,274.7037,107.1555,252.9774,0,U,49191,999,23665,-.81281869E-4,-.2E-6,0
ONEWEB-0322,2021-083G,2026-06-15T22:28:37.115616,13.13468624,.0001383,87.8951,320.4848,100.7092,259.4193,0,U,49192,999,23075,.98984692E-4,.49E-6,0
ONEWEB-0324,2021-083H,2026-06-15T22:06:29.860416,13.18685265,.00019538,87.9171,335.7013,97.4764,262.6590,0,U,49193,999,22983,.23201638E-4,.22E-6,0
ONEWEB-0325,2021-083J,2026-06-15T22:11:21.663456,13.18685397,.0001798,87.9160,335.7091,90.3802,269.7536,0,U,49194,999,22984,-.73797964E-4,-.16E-6,0
ONEWEB-0326,2021-083K,2026-06-15T22:33:24.911424,13.18685183,.000201,87.9169,335.7039,85.7615,274.3747,0,U,49195,999,22983,.56357138E-4,.35E-6,0
ONEWEB-0327,2021-083L,2026-06-15T22:33:00.684000,13.18684717,.00019563,87.9160,335.7081,80.9972,279.1381,0,U,49196,999,22985,-.845776E-5,.1E-6,0
ONEWEB-0328,2021-083M,2026-06-15T22:14:01.036032,13.13470081,.000195,87.8960,320.4598,99.3608,260.7742,0,U,49197,999,23073,-.57223905E-3,-.196E-5,0
ONEWEB-0331,2021-083N,2026-06-15T22:23:29.757984,13.18686502,.0002111,87.9170,335.6989,86.2886,273.8488,0,U,49198,999,22984,.1415313E-5,.13E-6,0
ONEWEB-0333,2021-083P,2026-06-15T22:06:42.028992,13.13469904,.00018359,87.8949,320.4872,94.9090,265.2249,0,U,49199,999,23074,-.75295859E-3,-.262E-5,0
ONEWEB-0334,2021-083Q,2026-06-15T20:29:36.736224,13.21267193,.00011892,87.9189,274.7116,134.8842,225.2388,0,U,49200,999,23661,-.22031553E-2,-.889E-5,0
ONEWEB-0335,2021-083R,2026-06-15T21:59:23.394336,13.13470363,.00019956,87.8952,320.4853,93.0541,267.0816,0,U,49201,999,23075,-.95340528E-3,-.335E-5,0
