ONEWEB-0309             
1 49095U 21075W   26166.79811299  .00000018  00000+0  12011-4 0  9996
2 49095  87.9133   6.1393 0001945 102.5117 257.6232 13.17648906233390
ONEWEB-0310             
1 49096U 21075X   26166.93957178 -.00000066  00000+0 -21819-3 0  9990
2 49096  87.8939 350.9286 0001802  91.2140 268.9195 13.12444981235024
ONEWEB-0311             
1 49097U 21075Y   26166.80487056 -.00000021  00000+0 -86996-4 0  9999
2 49097  87.9134   6.1375 0002256  82.1317 278.0070 13.17649973233442
ONEWEB-0312             
1 49098U 21075Z   26166.97193991  .00000041  00000+0  71951-4 0  9995
2 49098  87.9132   6.1152 0002179  91.6621 268.4760 13.17652709233441
ONEWEB-0313             
1 49099U 21075AA  26166.82497529 -.00000029  00000+0 -10799-3 0  9994
2 49099  87.9129   6.1503 0001981  86.4601 273.6757 13.17648120233411
ONEWEB-0314             
1 49100U 21075AB  26166.79137429  .00000069  00000+0  14437-3 0  9998
2 49100  87.9142   6.1291 0002221  91.4458 268.6928 13.17649333233384
ONEWEB-0315             
1 49101U 21075AC  26166.91246916 -.00000265  00000+0 -77217-3 0  9990
2 49101  87.8947 350.8977 0002075  81.9599 278.1765 13.12442465235002
ONEWEB-0316             
1 49102U 21075AD  26166.86891623 -.00000010  00000+0 -58273-4 0  9996
2 49102  87.9163 335.7183 0001916  91.9143 268.2208 13.18686720237031
ONEWEB-0317             
1 49103U 21075AE  26166.91585793 -.00000336  00000+0 -96926-3 0  9998
2 49103  87.8948 350.9207 0001498 113.9078 246.2208 13.12442555235028
ONEWEB-0318             
1 49104U 21075AF  26166.94142357  .00000010  00000+0 -84953-5 0  9994
2 49104  87.9170 335.7053 0002019  86.6782 273.4581 13.18685883237000
ONEWEB-0319             
1 49105U 21075AG  26166.57874434  .00000037  00000+0  61934-4 0  9993
2 49105  87.9132   6.1880 0002240  77.1214 283.0168 13.17649343233393
ONEWEB-0323             
1 49106U 21075AH  26166.97346516  .00000292  00000+0  77675-3 0  9994
2 49106  87.8947 350.8907 0002304  82.5450 277.5940 13.12442596234392
ONEWEB-0329             
1 49107U 21075AJ  26166.96686377  .00000046  00000+0  84322-4 0  9991
2 49107  87.9133   6.1116 0002024  88.7480 271.3883 13.17648803233429
ONEWEB-0330             
1 49108U 21075AK  26166.83876638  .00000007  00000+0 -15107-4 0  9992
2 49108  87.9136   6.1574 0002020  93.2760 266.8603 13.17648842233443
ONEWEB-0292             
1 49186U 21083A   26166.87055105  .00000277  00000+0  72388-3 0  9990
2 49186  87.8947 320.5005 0001931  91.9789 268.1561 13.13471268230757
ONEWEB-0303             
1 49187U 21083B   26166.93804898  .00000013  00000+0  24807-6 0  9993
2 49187  87.9164 335.7048 0001970  89.1807 270.9551 13.18687056229812
ONEWEB-0306             
1 49188U 21083C   26166.92792681  .00000045  00000+0  81341-4 0  9998
2 49188  87.9170 335.6946 0001728  99.0340 261.0988 13.18687714229859
ONEWEB-0307             
1 49189U 21083D   26166.94079606  .00000119  00000+0  29114-3 0  9997
2 49189  87.8952 320.4835 0001960  94.7893 265.3460 13.13470539230763
ONEWEB-0320             
1 49190U 21083E   26166.87228110  .00000030  00000+0  43146-4 0  9991
2 49190  87.9160 335.7239 0001825  94.2206 265.9135 13.18685693229809
ONEWEB-0321             
1 49191U 21083F   26166.83742563 -.00000020  00000+0 -81282-4 0  9995
2 49191  87.9193 274.7037 0001784 107.1555 252.9774 13.20771671236650
ONEWEB-0322             
1 49192U 21083G   26166.93654069  .00000049  00000+0  98985-4 0  9997
2 49192  87.8951 320.4848 0001383 100.7092 259.4193 13.13468624230756
ONEWEB-0324             
1 49193U 21083H   26166.92117894  .00000022  00000+0  23202-4 0  9998
2 49193  87.9171 335.7013 0001953  97.4764 262.6590 13.18685265229837
ONEWEB-0325             
1 49194U 21083J   26166.92455629 -.00000016  00000+0 -73798-4 0  9990
2 49194  87.9160 335.7091 0001798  90.3802 269.7536 13.18685397229849
ONEWEB-0326             
1 49195U 21083K   26166.93987166  .00000035  00000+0  56357-4 0  9999
2 49195  87.9169 335.7039 0002010  85.7615 274.3747 13.18685183229837
ONEWEB-0327             
1 49196U 21083L   26166.93959125  .00000010  00000+0 -84578-5 0  9995
2 49196  87.9160 335.7081 0001956  80.9972 279.1381 13.18684717229858
ONEWEB-0328             
1 49197U 21083M   26166.92640088 -.00000196  00000+0 -57224-3 0  9992
2 49197  87.8960 320.4598 0001950  99.3608 260.7742 13.13470081230732
ONEWEB-0331             
1 49198U 21083N   26166.93298331  .00000013  00000+0  14153-5 0  9996
2 49198  87.9170 335.6989 0002111  86.2886 273.8488 13.18686502229846
ONEWEB-0333             
1 49199U 21083P   26166.92131978 -.00000262  00000+0 -75296-3 0  9990
2 49199  87.8949 320.4872 0001835  94.9090 265.2249 13.13469904230749
ONEWEB-0334             
1 49200U 21083Q   26166.85389741 -.00000889  00000+0 -22032-2 0  9992
2 49200  87.9189 274.7116 0001189 134.8842 225.2388 13.21267193236619
ONEWEB-0335             
1 49201U 21083R   26166.91624299 -.00000335  00000+0 -95341-3 0  9990
2 49201  87.8952 320.4853 0001995  93.0541 267.0816 13.13470363230756
